0 ESIAFI 1 (COMSTAR 4)
1 12309U 81018A   13281.73745151 -.00000089  00000-0  10000-3 0  7250
2 12309 014.7225 355.5770 0001820 107.8484 252.1817 01.00261356120983
0 ESIAFI 1 (COMSTAR 4)
1 12309U 81018A   13282.73484163  .00000000  00000-0  10000-3 0  7278
2 12309 014.7231 355.5696 0001095 113.5904 246.4349 01.00256987120993
0 ESIAFI 1 (COMSTAR 4)
1 12309U 81018A   13288.71890293 -.00000099  00000-0  10000-3 0  7276
2 12309 014.7231 355.5055 0001960 108.8615 251.1506 01.00261619121053
0 ESIAFI 1 (COMSTAR 4)
1 12309U 81018A   13291.71095001 -.00000096  00000-0  10000-3 0  7282
2 12309 014.7234 355.4744 0002150 110.5062 249.5033 01.00261787121083
0 ESIAFI 1 (COMSTAR 4)
1 12309U 81018A   13294.70300217 -.00000090  00000-0  10000-3 0  7297
2 12309 014.7237 355.4435 0002238 113.2486 246.7631 01.00261994121117
